STARLINK-2376           
1 47915U 21021BH  22301.75914603  .00001318  00000+0  10733-3 0  9994
2 47915  53.0566  29.0062 0001369  83.3373 276.7771 15.06407908 90565
STARLINK-2378           
1 47916U 21021BJ  22302.19731232  .00001265  00000+0  10377-3 0  9994
2 47916  53.0534  12.0580 0001668  61.3524 298.7632 15.06408171 90848
STARLINK-2397           
1 47917U 21021BK  22301.67298628  .00001900  00000+0  14640-3 0  9997
2 47917  53.0552  24.3933 0001330  75.0420 285.0716 15.06408493 91075
STARLINK-2398           
1 47918U 21021BL  22301.54766043  .00001727  00000+0  13481-3 0  9994
2 47918  53.0556  24.9743 0001546  71.9993 288.1164 15.06406611 91086
STARLINK-2405           
1 47919U 21021BM  22301.53199881  .00001832  00000+0  14178-3 0  9995
2 47919  53.0566  35.0395 0001518  54.5485 305.5645 15.06413878 90446
CAS500-1                
1 47932U 21022A   22302.23159249  .00006908  00000+0  30653-3 0  9998
2 47932  97.4203 200.4884 0003259  13.9202 142.7287 15.21888232 89114
GRUS-1C                 
1 47933U 21022B   22302.14574887  .00001276  00000+0  12566-3 0  9994
2 47933  97.6800 199.4533 0021170  90.7820 269.5841 14.93617863 87423
GRUS-1B                 
1 47934U 21022C   22302.18624139  .00000550  00000+0  57220-4 0  9996
2 47934  97.6812 199.4623 0020929  87.7873 272.5752 14.93608341 87428
GRUS-1E                 
1 47935U 21022D   22302.19840068  .00000785  00000+0  79376-4 0  9995
2 47935  97.6820 199.6738 0020887  90.3570 270.0061 14.93617443 87434
GRUS-1D                 
1 47936U 21022E   22302.15826098  .00001544  00000+0  15099-3 0  9994
2 47936  97.6818 199.5132 0021352  90.3880 269.9783 14.93623297 87422
DMSAT-1                 
1 47940U 21022J   22302.33982065  .00006190  00000+0  38426-3 0  9997
2 47940  97.5141 199.8418 0018921  41.7572  92.4161 15.09902772 88247
WILDTRACKCUBE-SIMBA     
1 47941U 21022K   22302.38438090  .00004475  00000+0  29170-3 0  9997
2 47941  97.5162 199.0103 0022268  51.9712  38.6558 15.08205471 88177
HIBER-3                 
1 47942U 21022L   22301.69079269  .00006700  00000+0  42120-3 0  9993
2 47942  97.5117 198.5781 0021083  51.5793 308.7324 15.09372865 88101
ELSA-D                  
1 47944U 21022N   22301.73268214  .00007783  00000+0  49357-3 0  9991
2 47944  97.5122 198.8195 0019283  45.5111 314.7690 15.09032025 88134
UNISAT-7                
1 47945U 21022P   22301.67172254  .00004220  00000+0  27351-3 0  9996
2 47945  97.5124 198.7652 0018875  45.7237 314.5537 15.08505519 87994
LACUNASAT-2B            
1 47948U 21022S   22301.67417092  .00014338  00000+0  83480-3 0  9997
2 47948  97.5206 199.9153 0020582  48.9055 311.3949 15.11950633 88020
KEPLER-7 (C3PO)         
1 47949U 21022T   22301.69069687  .00009711  00000+0  60384-3 0  9990
2 47949  97.5127 198.6300 0021450  52.3337 307.9833 15.09648766 88100
