[{"OBJECT_NAME":"STARLINK-2376","OBJECT_ID":"2021-021BH","EPOCH":"2022-10-28T18:13:10.216992","MEAN_MOTION":15.06407908,"ECCENTRICITY":0.0001369,"INCLINATION":53.0566,"RA_OF_ASC_NODE":29.0062,"ARG_OF_PERICENTER":83.3373,"MEAN_ANOMALY":276.7771,"EPHEMERIS_TYPE":0,"CLASSIFICATION_TYPE":"U","NORAD_CAT_ID":47915,"ELEMENT_SET_NO":999,"REV_AT_EPOCH":9056,"BSTAR":0.00010733,"MEAN_MOTION_DOT":1.318e-5,"MEAN_MOTION_DDOT":0},{"OBJECT_NAME":"STARLINK-2378","OBJECT_ID":"2021-021BJ","EPOCH":"2022-10-29T04:44:07.784448","MEAN_MOTION":15.06408171,"ECCENTRICITY":0.0001668,"INCLINATION":53.0534,"RA_OF_ASC_NODE":12.058,"ARG_OF_PERICENTER":61.3524,"MEAN_ANOMALY":298.7632,"EPHEMERIS_TYPE":0,"CLASSIFICATION_TYPE":"U","NORAD_CAT_ID":47916,"ELEMENT_SET_NO":999,"REV_AT_EPOCH":9084,"BSTAR":0.00010377,"MEAN_MOTION_DOT":1.265e-5,"MEAN_MOTION_DDOT":0},{"OBJECT_NAME":"STARLINK-2397","OBJECT_ID":"2021-021BK","EPOCH":"2022-10-28T16:09:06.014592","MEAN_MOTION":15.06408493,"ECCENTRICITY":0.000133,"INCLINATION":53.0552,"RA_OF_ASC_NODE":24.3933,"ARG_OF_PERICENTER":75.042,"MEAN_ANOMALY":285.0716,"EPHEMERIS_TYPE":0,"CLASSIFICATION_TYPE":"U","NORAD_CAT_ID":47917,"ELEMENT_SET_NO":999,"REV_AT_EPOCH":9107,"BSTAR":0.0001464,"MEAN_MOTION_DOT":1.9e-5,"MEAN_MOTION_DDOT":0},{"OBJECT_NAME":"STARLINK-2398","OBJECT_ID":"2021-021BL","EPOCH":"2022-10-28T13:08:37.861152","MEAN_MOTION":15.06406611,"ECCENTRICITY":0.0001546,"INCLINATION":53.0556,"RA_OF_ASC_NODE":24.9743,"ARG_OF_PERICENTER":71.9993,"MEAN_ANOMALY":288.1164,"EPHEMERIS_TYPE":0,"CLASSIFICATION_TYPE":"U","NORAD_CAT_ID":47918,"ELEMENT_SET_NO":999,"REV_AT_EPOCH":9108,"BSTAR":0.00013481,"MEAN_MOTION_DOT":1.727e-5,"MEAN_MOTION_DDOT":0},{"OBJECT_NAME":"STARLINK-2405","OBJECT_ID":"2021-021BM","EPOCH":"2022-10-28T12:46:04.697184","MEAN_MOTION":15.06413878,"ECCENTRICITY":0.0001518,"INCLINATION":53.0566,"RA_OF_ASC_NODE":35.0395,"ARG_OF_PERICENTER":54.5485,"MEAN_ANOMALY":305.5645,"EPHEMERIS_TYPE":0,"CLASSIFICATION_TYPE":"U","NORAD_CAT_ID":47919,"ELEMENT_SET_NO":999,"REV_AT_EPOCH":9044,"BSTAR":0.00014178,"MEAN_MOTION_DOT":1.832e-5,"MEAN_MOTION_DDOT":0},{"OBJECT_NAME":"CAS500-1","OBJECT_ID":"2021-022A","EPOCH":"2022-10-29T05:33:29.591136","MEAN_MOTION":15.21888232,"ECCENTRICITY":0.0003259,"INCLINATION":97.4203,"RA_OF_ASC_NODE":200.4884,"ARG_OF_PERICENTER":13.9202,"MEAN_ANOMALY":142.7287,"EPHEMERIS_TYPE":0,"CLASSIFICATION_TYPE":"U","NORAD_CAT_ID":47932,"ELEMENT_SET_NO":999,"REV_AT_EPOCH":8911,"BSTAR":0.00030653,"MEAN_MOTION_DOT":6.908e-5,"MEAN_MOTION_DDOT":0},{"OBJECT_NAME":"GRUS-1C","OBJECT_ID":"2021-022B","EPOCH":"2022-10-29T03:29:52.702368","MEAN_MOTION":14.93617863,"ECCENTRICITY":0.002117,"INCLINATION":97.68,"RA_OF_ASC_NODE":199.4533,"ARG_OF_PERICENTER":90.782,"MEAN_ANOMALY":269.5841,"EPHEMERIS_TYPE":0,"CLASSIFICATION_TYPE":"U","NORAD_CAT_ID":47933,"ELEMENT_SET_NO":999,"REV_AT_EPOCH":8742,"BSTAR":0.00012566,"MEAN_MOTION_DOT":1.276e-5,"MEAN_MOTION_DDOT":0},{"OBJECT_NAME":"GRUS-1B","OBJECT_ID":"2021-022C","EPOCH":"2022-10-29T04:28:11.256096","MEAN_MOTION":14.93608341,"ECCENTRICITY":0.0020929,"INCLINATION":97.6812,"RA_OF_ASC_NODE":199.4623,"ARG_OF_PERICENTER":87.7873,"MEAN_ANOMALY":272.5752,"EPHEMERIS_TYPE":0,"CLASSIFICATION_TYPE":"U","NORAD_CAT_ID":47934,"ELEMENT_SET_NO":999,"REV_AT_EPOCH":8742,"BSTAR":5.722e-5,"MEAN_MOTION_DOT":5.5e-6,"MEAN_MOTION_DDOT":0},{"OBJECT_NAME":"GRUS-1E","OBJECT_ID":"2021-022D","EPOCH":"2022-10-29T04:45:41.818752","MEAN_MOTION":14.93617443,"ECCENTRICITY":0.0020887,"INCLINATION":97.682,"RA_OF_ASC_NODE":199.6738,"ARG_OF_PERICENTER":90.357,"MEAN_ANOMALY":270.0061,"EPHEMERIS_TYPE":0,"CLASSIFICATION_TYPE":"U","NORAD_CAT_ID":47935,"ELEMENT_SET_NO":999,"REV_AT_EPOCH":8743,"BSTAR":7.9376e-5,"MEAN_MOTION_DOT":7.85e-6,"MEAN_MOTION_DDOT":0},{"OBJECT_NAME":"GRUS-1D","OBJECT_ID":"2021-022E","EPOCH":"2022-10-29T03:47:53.748672","MEAN_MOTION":14.93623297,"ECCENTRICITY":0.0021352,"INCLINATION":97.6818,"RA_OF_ASC_NODE":199.5132,"ARG_OF_PERICENTER":90.388,"MEAN_ANOMALY":269.9783,"EPHEMERIS_TYPE":0,"CLASSIFICATION_TYPE":"U","NORAD_CAT_ID":47936,"ELEMENT_SET_NO":999,"REV_AT_EPOCH":8742,"BSTAR":0.00015099,"MEAN_MOTION_DOT":1.544e-5,"MEAN_MOTION_DDOT":0},{"OBJECT_NAME":"DMSAT-1","OBJECT_ID":"2021-022J","EPOCH":"2022-10-29T08:09:20.504160","MEAN_MOTION":15.09902772,"ECCENTRICITY":0.0018921,"INCLINATION":97.5141,"RA_OF_ASC_NODE":199.8418,"ARG_OF_PERICENTER":41.7572,"MEAN_ANOMALY":92.4161,"EPHEMERIS_TYPE":0,"CLASSIFICATION_TYPE":"U","NORAD_CAT_ID":47940,"ELEMENT_SET_NO":999,"REV_AT_EPOCH":8824,"BSTAR":0.00038426,"MEAN_MOTION_DOT":6.19e-5,"MEAN_MOTION_DDOT":0},{"OBJECT_NAME":"WILDTRACKCUBE-SIMBA","OBJECT_ID":"2021-022K","EPOCH":"2022-10-29T09:13:30.509760","MEAN_MOTION":15.08205471,"ECCENTRICITY":0.0022268,"INCLINATION":97.5162,"RA_OF_ASC_NODE":199.0103,"ARG_OF_PERICENTER":51.9712,"MEAN_ANOMALY":38.6558,"EPHEMERIS_TYPE":0,"CLASSIFICATION_TYPE":"U","NORAD_CAT_ID":47941,"ELEMENT_SET_NO":999,"REV_AT_EPOCH":8817,"BSTAR":0.0002917,"MEAN_MOTION_DOT":4.475e-5,"MEAN_MOTION_DDOT":0},{"OBJECT_NAME":"HIBER-3","OBJECT_ID":"2021-022L","EPOCH":"2022-10-28T16:34:44.488416","MEAN_MOTION":15.09372865,"ECCENTRICITY":0.0021083,"INCLINATION":97.5117,"RA_OF_ASC_NODE":198.5781,"ARG_OF_PERICENTER":51.5793,"MEAN_ANOMALY":308.7324,"EPHEMERIS_TYPE":0,"CLASSIFICATION_TYPE":"U","NORAD_CAT_ID":47942,"ELEMENT_SET_NO":999,"REV_AT_EPOCH":8810,"BSTAR":0.0004212,"MEAN_MOTION_DOT":6.7e-5,"MEAN_MOTION_DDOT":0},{"OBJECT_NAME":"ELSA-D","OBJECT_ID":"2021-022N","EPOCH":"2022-10-28T17:35:03.736896","MEAN_MOTION":15.09032025,"ECCENTRICITY":0.0019283,"INCLINATION":97.5122,"RA_OF_ASC_NODE":198.8195,"ARG_OF_PERICENTER":45.5111,"MEAN_ANOMALY":314.769,"EPHEMERIS_TYPE":0,"CLASSIFICATION_TYPE":"U","NORAD_CAT_ID":47944,"ELEMENT_SET_NO":999,"REV_AT_EPOCH":8813,"BSTAR":0.00049357,"MEAN_MOTION_DOT":7.783e-5,"MEAN_MOTION_DDOT":0},{"OBJECT_NAME":"UNISAT-7","OBJECT_ID":"2021-022P","EPOCH":"2022-10-28T16:07:16.827456","MEAN_MOTION":15.08505519,"ECCENTRICITY":0.0018875,"INCLINATION":97.5124,"RA_OF_ASC_NODE":198.7652,"ARG_OF_PERICENTER":45.7237,"MEAN_ANOMALY":314.5537,"EPHEMERIS_TYPE":0,"CLASSIFICATION_TYPE":"U","NORAD_CAT_ID":47945,"ELEMENT_SET_NO":999,"REV_AT_EPOCH":8799,"BSTAR":0.00027351,"MEAN_MOTION_DOT":4.22e-5,"MEAN_MOTION_DDOT":0},{"OBJECT_NAME":"LACUNASAT-2B","OBJECT_ID":"2021-022S","EPOCH":"2022-10-28T16:10:48.367488","MEAN_MOTION":15.11950633,"ECCENTRICITY":0.0020582,"INCLINATION":97.5206,"RA_OF_ASC_NODE":199.9153,"ARG_OF_PERICENTER":48.9055,"MEAN_ANOMALY":311.3949,"EPHEMERIS_TYPE":0,"CLASSIFICATION_TYPE":"U","NORAD_CAT_ID":47948,"ELEMENT_SET_NO":999,"REV_AT_EPOCH":8802,"BSTAR":0.0008348,"MEAN_MOTION_DOT":0.00014338,"MEAN_MOTION_DDOT":0},{"OBJECT_NAME":"KEPLER-7 (C3PO)","OBJECT_ID":"2021-022T","EPOCH":"2022-10-28T16:34:36.209568","MEAN_MOTION":15.09648766,"ECCENTRICITY":0.002145,"INCLINATION":97.5127,"RA_OF_ASC_NODE":198.63,"ARG_OF_PERICENTER":52.3337,"MEAN_ANOMALY":307.9833,"EPHEMERIS_TYPE":0,"CLASSIFICATION_TYPE":"U","NORAD_CAT_ID":47949,"ELEMENT_SET_NO":999,"REV_AT_EPOCH":8810,"BSTAR":0.00060384,"MEAN_MOTION_DOT":9.711e-5,"MEAN_MOTION_DDOT":0}]
